HAWK-2C                 
1 47502U 21006CT  26068.67595434  .00008129  00000+0  25493-3 0  9997
2 47502  97.2417 114.9961 0006943 184.0877 176.0310 15.33286436284247
STARLINK-33913          
1 65215U 25176T   26068.47449394  .00024915  00000+0  85110-3 0  9994
2 65215  53.1584 156.1278 0001160  63.2631 296.8489 15.30178168 33053
